0 SL-8 R/B
1 07686U 75016J   13281.12128142 -.00000107  00000-0 -84554-3 0  8978
2 07686 074.0010 250.8321 0164014 029.7445 080.7899 12.20936860720703
0 SL-8 R/B
1 07686U 75016J   13283.17635778 -.00000102  00000-0 -80028-3 0  8981
2 07686 074.0011 248.2410 0164065 026.8299 113.6085 12.20936716720955
0 SL-8 R/B
1 07686U 75016J   13285.46426917 -.00000084  00000-0 -63919-3 0  8998
2 07686 074.0014 245.3563 0164124 023.5880 089.8212 12.20936719721232
0 SL-8 R/B
1 07686U 75016J   13287.51529390 -.00000061  00000-0 -42199-3 0  9000
2 07686 074.0017 242.7702 0164155 020.6662 104.8504 12.20936232721480
0 SL-8 R/B
1 07686U 75016J   13289.79304078 -.00000037  00000-0 -20637-3 0  9013
2 07686 074.0021 239.8984 0164184 017.4322 036.3919 12.20935723721767
0 SL-8 R/B
1 07686U 75016J   13292.17931743 -.00000034  00000-0 -17657-3 0  9020
2 07686 074.0024 236.8901 0164262 014.0561 084.9419 12.20936027722056
0 SL-8 R/B
1 07686U 75016J   13294.39257727 -.00000050  00000-0 -32133-3 0  9034
2 07686 074.0025 234.1000 0164293 010.9112 093.0372 12.20936229722322
